[
    {
        "Altitude(m)": 705486.1550924558,
        "Argument of Periapsis(deg)": 0.007973084830638947,
        "Eccentricity": 0.0,
        "Inclination(deg)": 45.0,
        "Latitude(deg)": 36.681283343024724,
        "Longitude(deg)": -78.33800014496227,
        "Mean Anomaly(deg)": -237.38124834676344,
        "RAAN(deg)": 249.99247364097928,
        "Satellite Name": "Constellation 1 1107",
        "Satellite Number": 1107,
        "Semi-Major Axis(m)": 7083131.272910544,
        "Time(s)": 133
    },
    {
        "Altitude(m)": 705480.3625376398,
        "Argument of Periapsis(deg)": 0.008033032836884352,
        "Eccentricity": 0.0,
        "Inclination(deg)": 45.0,
        "Latitude(deg)": 36.652331737788124,
        "Longitude(deg)": -78.27564101233587,
        "Mean Anomaly(deg)": -237.3205472065135,
        "RAAN(deg)": 249.9924170518137,
        "Satellite Name": "Constellation 1 1107",
        "Satellite Number": 1107,
        "Semi-Major Axis(m)": 7083131.272910544,
        "Time(s)": 134
    },
    {
        "Altitude(m)": 705474.5663850491,
        "Argument of Periapsis(deg)": 0.008092980843129758,
        "Eccentricity": 0.0,
        "Inclination(deg)": 45.0,
        "Latitude(deg)": 36.623342940589986,
        "Longitude(deg)": -78.21333162382352,
        "Mean Anomaly(deg)": -237.25984606626366,
        "RAAN(deg)": 249.99236046264815,
        "Satellite Name": "Constellation 1 1107",
        "Satellite Number": 1107,
        "Semi-Major Axis(m)": 7083131.272910544,
        "Time(s)": 135
    },
    {
        "Altitude(m)": 705468.7666709924,
        "Argument of Periapsis(deg)": 0.008152928849375162,
        "Eccentricity": 0.0,
        "Inclination(deg)": 45.0,
        "Latitude(deg)": 36.59431701767338,
        "Longitude(deg)": -78.15107195324032,
        "Mean Anomaly(deg)": -237.1991449260137,
        "RAAN(deg)": 249.99230387348257,
        "Satellite Name": "Constellation 1 1107",
        "Satellite Number": 1107,
        "Semi-Major Axis(m)": 7083131.272910544,
        "Time(s)": 136
    },
    {
        "Altitude(m)": 705462.963431819,
        "Argument of Periapsis(deg)": 0.008212876855620568,
        "Eccentricity": 0.0,
        "Inclination(deg)": 45.0,
        "Latitude(deg)": 36.56525403523037,
        "Longitude(deg)": -78.08886197412899,
        "Mean Anomaly(deg)": -237.1384437857638,
        "RAAN(deg)": 249.992247284317,
        "Satellite Name": "Constellation 1 1107",
        "Satellite Number": 1107,
        "Semi-Major Axis(m)": 7083131.272910544,
        "Time(s)": 137
    },
    {
        "Altitude(m)": 705457.1567039086,
        "Argument of Periapsis(deg)": 0.008272824861865974,
        "Eccentricity": 0.0,
        "Inclination(deg)": 45.0,
        "Latitude(deg)": 36.53615405940168,
        "Longitude(deg)": -78.02670165976143,
        "Mean Anomaly(deg)": -237.07774264551398,
        "RAAN(deg)": 249.9921906951514,
        "Satellite Name": "Constellation 1 1107",
        "Satellite Number": 1107,
        "Semi-Major Axis(m)": 7083131.272910544,
        "Time(s)": 138
    },
    {
        "Altitude(m)": 705451.3465236743,
        "Argument of Periapsis(deg)": 0.00833277286811138,
        "Eccentricity": 0.0,
        "Inclination(deg)": 45.0,
        "Latitude(deg)": 36.50701715627594,
        "Longitude(deg)": -77.96459098313923,
        "Mean Anomaly(deg)": -237.01704150526396,
        "RAAN(deg)": 249.99213410598585,
        "Satellite Name": "Constellation 1 1107",
        "Satellite Number": 1107,
        "Semi-Major Axis(m)": 7083131.272910544,
        "Time(s)": 139
    },
    {
        "Altitude(m)": 705445.5329275589,
        "Argument of Periapsis(deg)": 0.008392720874356788,
        "Eccentricity": 0.0,
        "Inclination(deg)": 45.0,
        "Latitude(deg)": 36.477843391890154,
        "Longitude(deg)": -77.90252991699626,
        "Mean Anomaly(deg)": -236.95634036501417,
        "RAAN(deg)": 249.9920775168203,
        "Satellite Name": "Constellation 1 1107",
        "Satellite Number": 1107,
        "Semi-Major Axis(m)": 7083131.272910544,
        "Time(s)": 140
    },
    {
        "Altitude(m)": 705439.7159520439,
        "Argument of Periapsis(deg)": 0.008452668880602192,
        "Eccentricity": 0.0,
        "Inclination(deg)": 45.0,
        "Latitude(deg)": 36.44863283222871,
        "Longitude(deg)": -77.84051860189577,
        "Mean Anomaly(deg)": -236.89563922476418,
        "RAAN(deg)": 249.99202092765475,
        "Satellite Name": "Constellation 1 1107",
        "Satellite Number": 1107,
        "Semi-Major Axis(m)": 7083131.272910544,
        "Time(s)": 141
    },
    {
        "Altitude(m)": 705433.8956336387,
        "Argument of Periapsis(deg)": 0.008512616886847598,
        "Eccentricity": 0.0,
        "Inclination(deg)": 45.0,
        "Latitude(deg)": 36.41938554322355,
        "Longitude(deg)": -77.7785566738453,
        "Mean Anomaly(deg)": -236.83493808451433,
        "RAAN(deg)": 249.99196433848914,
        "Satellite Name": "Constellation 1 1107",
        "Satellite Number": 1107,
        "Semi-Major Axis(m)": 7083131.272910544,
        "Time(s)": 142
    },
    {
        "Altitude(m)": 705428.0720088863,
        "Argument of Periapsis(deg)": 0.008572564893093004,
        "Eccentricity": 0.0,
        "Inclination(deg)": 45.0,
        "Latitude(deg)": 36.390101590753744,
        "Longitude(deg)": -77.71664427287836,
        "Mean Anomaly(deg)": -236.77423694426443,
        "RAAN(deg)": 249.99190774932356,
        "Satellite Name": "Constellation 1 1107",
        "Satellite Number": 1107,
        "Semi-Major Axis(m)": 7083131.272910544,
        "Time(s)": 143
    },
    {
        "Altitude(m)": 705422.2451143619,
        "Argument of Periapsis(deg)": 0.008632512899338408,
        "Eccentricity": 0.0,
        "Inclination(deg)": 45.0,
        "Latitude(deg)": 36.36078104064502,
        "Longitude(deg)": -77.65478137066874,
        "Mean Anomaly(deg)": -236.7135358040145,
        "RAAN(deg)": 249.991851160158,
        "Satellite Name": "Constellation 1 1107",
        "Satellite Number": 1107,
        "Semi-Major Axis(m)": 7083131.272910544,
        "Time(s)": 144
    },
    {
        "Altitude(m)": 705416.4149866716,
        "Argument of Periapsis(deg)": 0.008692460905583814,
        "Eccentricity": 0.0,
        "Inclination(deg)": 45.0,
        "Latitude(deg)": 36.33142395866995,
        "Longitude(deg)": -77.592967938629,
        "Mean Anomaly(deg)": -236.65283466376465,
        "RAAN(deg)": 249.99179457099245,
        "Satellite Name": "Constellation 1 1107",
        "Satellite Number": 1107,
        "Semi-Major Axis(m)": 7083131.272910544,
        "Time(s)": 145
    },
    {
        "Altitude(m)": 705410.5816624543,
        "Argument of Periapsis(deg)": 0.00875240891182922,
        "Eccentricity": 0.0,
        "Inclination(deg)": 45.0,
        "Latitude(deg)": 36.302030410547005,
        "Longitude(deg)": -77.53120394791104,
        "Mean Anomaly(deg)": -236.5921335235147,
        "RAAN(deg)": 249.9917379818269,
        "Satellite Name": "Constellation 1 1107",
        "Satellite Number": 1107,
        "Semi-Major Axis(m)": 7083131.272910544,
        "Time(s)": 146
    },
    {
        "Altitude(m)": 705404.7451783828,
        "Argument of Periapsis(deg)": 0.008812356918074627,
        "Eccentricity": 0.0,
        "Inclination(deg)": 45.0,
        "Latitude(deg)": 36.272600461941074,
        "Longitude(deg)": -77.46948936940879,
        "Mean Anomaly(deg)": -236.53143238326484,
        "RAAN(deg)": 249.99168139266126,
        "Satellite Name": "Constellation 1 1107",
        "Satellite Number": 1107,
        "Semi-Major Axis(m)": 7083131.272910544,
        "Time(s)": 147
    },
    {
        "Altitude(m)": 705398.9055711537,
        "Argument of Periapsis(deg)": 0.008872304924320031,
        "Eccentricity": 0.0,
        "Inclination(deg)": 45.0,
        "Latitude(deg)": 36.24313417846241,
        "Longitude(deg)": -77.40782434185464,
        "Mean Anomaly(deg)": -236.47073124301494,
        "RAAN(deg)": 249.9916248034957,
        "Satellite Name": "Constellation 1 1107",
        "Satellite Number": 1107,
        "Semi-Major Axis(m)": 7083131.272910544,
        "Time(s)": 148
    },
    {
        "Altitude(m)": 705393.0628775066,
        "Argument of Periapsis(deg)": 0.008932252930565437,
        "Eccentricity": 0.0,
        "Inclination(deg)": 45.0,
        "Latitude(deg)": 36.21363162566715,
        "Longitude(deg)": -77.34620849943516,
        "Mean Anomaly(deg)": -236.41003010276506,
        "RAAN(deg)": 249.99156821433016,
        "Satellite Name": "Constellation 1 1107",
        "Satellite Number": 1107,
        "Semi-Major Axis(m)": 7083131.272910544,
        "Time(s)": 149
    },
    {
        "Altitude(m)": 705387.2171342005,
        "Argument of Periapsis(deg)": 0.008992200936810843,
        "Eccentricity": 0.0,
        "Inclination(deg)": 45.0,
        "Latitude(deg)": 36.184092869056194,
        "Longitude(deg)": -77.28464198037224,
        "Mean Anomaly(deg)": -236.34932896251513,
        "RAAN(deg)": 249.9915116251646,
        "Satellite Name": "Constellation 1 1107",
        "Satellite Number": 1107,
        "Semi-Major Axis(m)": 7083131.272910544,
        "Time(s)": 150
    },
    {
        "Altitude(m)": 705381.368378036,
        "Argument of Periapsis(deg)": 0.009052148943056249,
        "Eccentricity": 0.0,
        "Inclination(deg)": 45.0,
        "Latitude(deg)": 36.154517974075716,
        "Longitude(deg)": -77.22312475453778,
        "Mean Anomaly(deg)": -236.28862782226523,
        "RAAN(deg)": 249.99145503599905,
        "Satellite Name": "Constellation 1 1107",
        "Satellite Number": 1107,
        "Semi-Major Axis(m)": 7083131.272910544,
        "Time(s)": 151
    }
]